[{"OBJECT_NAME":"MKA-PN 1","OBJECT_ID":"2012-039E","EPOCH":"2026-03-09T22:22:36.240960","MEAN_MOTION":14.25388825,"ECCENTRICITY":0.00124264,"INCLINATION":98.958,"RA_OF_ASC_NODE":183.7893,"ARG_OF_PERICENTER":95.296,"MEAN_ANOMALY":264.9637,"EPHEMERIS_TYPE":0,"CLASSIFICATION_TYPE":"U","NORAD_CAT_ID":38711,"ELEMENT_SET_NO":999,"REV_AT_EPOCH":70870,"BSTAR":0.00011675607,"MEAN_MOTION_DOT":2.29e-6,"MEAN_MOTION_DDOT":0},{"OBJECT_NAME":"COSMOS 2251 DEB","OBJECT_ID":"1993-036BTP","EPOCH":"2026-03-04T06:18:13.079232","MEAN_MOTION":14.39302078,"ECCENTRICITY":0.00789047,"INCLINATION":74.0123,"RA_OF_ASC_NODE":33.6396,"ARG_OF_PERICENTER":125.873,"MEAN_ANOMALY":300.6999,"EPHEMERIS_TYPE":0,"CLASSIFICATION_TYPE":"U","NORAD_CAT_ID":38479,"ELEMENT_SET_NO":999,"REV_AT_EPOCH":65860,"BSTAR":0.0010705986,"MEAN_MOTION_DOT":3.423e-5,"MEAN_MOTION_DDOT":0}]
